0 COSMOS 829
1 08893U 76054E   13281.41742064  .00000006  00000-0  15076-3 0  9429
2 08893 074.0025 018.8813 0026314 267.5142 092.2909 12.48614761701009
0 COSMOS 829
1 08893U 76054E   13286.74105660  .00000008  00000-0  15776-3 0  9446
2 08893 074.0043 011.8102 0026498 260.4275 261.2198 12.48614429701666
0 COSMOS 829
1 08893U 76054E   13289.19504291  .00000014  00000-0  19931-3 0  9456
2 08893 074.0039 008.5524 0026538 256.9007 131.7724 12.48614415701975
0 COSMOS 829
1 08893U 76054E   13291.19779813  .00000004  00000-0  13314-3 0  9462
2 08893 074.0035 005.8935 0026550 254.0073 134.0776 12.48614648702223
0 COSMOS 829
1 08893U 76054E   13293.20094749 -.00000014  00000-0  12402-4 0  9475
2 08893 074.0032 003.2338 0026517 251.0749 138.1939 12.48614850702477
0 COSMOS 829
1 08893U 76054E   13295.37383047 -.00000021  00000-0 -35278-4 0  9483
2 08893 074.0031 000.3486 0026500 247.8885 185.2680 12.48614966702748
